NORAD_CAT_ID,OBJECT_NAME,OBJECT_TYPE,EPOCH,MEAN_MOTION,ECCENTRICITY,INCLINATION,RA_OF_ASC_NODE,ARG_OF_PERICENTER,MEAN_ANOMALY,BSTAR,MEAN_MOTION_DOT,MEAN_MOTION_DDOT,TLE_LINE0,TLE_LINE1,TLE_LINE2,SEMIMAJOR_AXIS,PERIOD,APOGEE,PERIGEE,DECAYED
53394.0,STARLINK-4544,PAYLOAD,2023-06-22 22:00:56,15.08844564,8.18e-05,53.2146,241.6425,102.3516,257.7568,3.533e-05,2.75e-06,0.0,0 STARLINK-4544,1 53394U 22097G   23173.91732326  .00000275  00000-0  35330-4 0  9995,2 53394  53.2146 241.6425 0000818 102.3516 257.7568 15.08844564 48597,6917.866,95.437,540.297,539.166,0.0
53394.0,STARLINK-4544,PAYLOAD,2023-06-24 07:24:03,15.0883435,0.0001164,53.2158,235.4004,81.0549,279.0574,1.1569e-05,-1.04e-06,0.0,0 STARLINK-4544,1 53394U 22097G   23175.30837059 -.00000104  00000-0  11569-4 0  9999,2 53394  53.2158 235.4004 0001164  81.0549 279.0574 15.08834350 48808,6917.898,95.438,540.568,538.957,0.0
53394.0,STARLINK-4544,PAYLOAD,2023-06-25 10:25:35,15.08846587,0.0001159,53.2163,230.3451,87.936,272.1765,5.6848e-05,6.17e-06,0.0,0 STARLINK-4544,1 53394U 22097G   23176.43444177  .00000617  00000-0  56848-4 0  9996,2 53394  53.2163 230.3451 0001159  87.9360 272.1765 15.08846587 48973,6917.86,95.437,540.527,538.923,0.0
53394.0,STARLINK-4544,PAYLOAD,2023-06-26 11:51:46,15.08835015,0.0001187,53.2161,225.5882,84.5803,275.5324,8.7663e-05,1.107e-05,0.0,0 STARLINK-4544,1 53394U 22097G   23177.49429021  .00001107  00000-0  87663-4 0  9998,2 53394  53.2161 225.5882 0001187  84.5803 275.5324 15.08835015 49132,6917.896,95.438,540.582,538.939,0.0
53394.0,STARLINK-4544,PAYLOAD,2023-06-27 19:39:29,15.08837238,0.0001043,53.2155,219.6395,83.5942,276.5169,-8.6916e-06,-4.26e-06,0.0,0 STARLINK-4544,1 53394U 22097G   23178.81909373 -.00000426  00000-0 -86916-5 0  9994,2 53394  53.2155 219.6395 0001043  83.5942 276.5169 15.08837238 49331,6917.889,95.438,540.475,539.032,0.0
53394.0,STARLINK-4544,PAYLOAD,2023-06-28 03:36:25,15.08830118,0.0001043,53.2157,218.1528,87.1069,273.0042,-1.3525e-05,-5.03e-06,0.0,0 STARLINK-4544,1 53394U 22097G   23179.15030004 -.00000503  00000-0 -13525-4 0  9999,2 53394  53.2157 218.1528 0001043  87.1069 273.0042 15.08830118 49382,6917.911,95.438,540.497,539.054,0.0
53394.0,STARLINK-4544,PAYLOAD,2023-06-29 03:27:12,15.08837014,0.0001034,53.216,213.6923,83.0671,277.0439,6.6892e-05,7.77e-06,0.0,0 STARLINK-4544,1 53394U 22097G   23180.14389693  .00000777  00000-0  66892-4 0  9997,2 53394  53.2160 213.6923 0001034  83.0671 277.0439 15.08837014 49532,6917.89,95.438,540.47,539.039,0.0
53394.0,STARLINK-4544,PAYLOAD,2023-07-01 12:41:05,15.08842946,0.0001056,53.2157,202.9859,82.8151,277.2961,2.3072e-05,7.9e-07,0.0,0 STARLINK-4544,1 53394U 22097G   23182.52853274  .00000079  00000-0  23072-4 0  9990,2 53394  53.2157 202.9859 0001056  82.8151 277.2961 15.08842946 49892,6917.871,95.437,540.467,539.006,0.0
53394.0,STARLINK-4544,PAYLOAD,2023-07-03 01:14:57,15.08843204,0.0001054,53.2158,196.1474,78.151,281.96,3.8302e-05,3.22e-06,0.0,0 STARLINK-4544,1 53394U 22097G   23184.05204943  .00000322  00000-0  38302-4 0  9996,2 53394  53.2158 196.1474 0001054  78.1510 281.9600 15.08843204 50123,6917.871,95.437,540.465,539.006,0.0
53394.0,STARLINK-4544,PAYLOAD,2023-07-04 01:05:44,15.08831887,9.33e-05,53.216,191.6871,77.2073,282.9023,-2.2774e-05,-6.5e-06,0.0,0 STARLINK-4544,1 53394U 22097G   23185.04565752 -.00000650  00000-0 -22774-4 0  9996,2 53394  53.2160 191.6871 0000933  77.2073 282.9023 15.08831887 50276,6917.905,95.438,540.416,539.125,0.0
53394.0,STARLINK-4544,PAYLOAD,2023-07-05 07:18:04,15.08839339,0.0001072,53.2159,186.0363,78.6709,281.4404,-5.3355e-06,-3.73e-06,0.0,0 STARLINK-4544,1 53394U 22097G   23186.30421522 -.00000373  00000-0 -53355-5 0  9994,2 53394  53.2159 186.0363 0001072  78.6709 281.4404 15.08839339 50462,6917.882,95.438,540.489,539.006,0.0
53394.0,STARLINK-4544,PAYLOAD,2023-07-06 05:33:28,15.08832357,0.0001071,53.2157,181.8733,82.326,277.7854,3.7471e-05,3.09e-06,0.0,0 STARLINK-4544,1 53394U 22097G   23187.23158197  .00000309  00000-0  37471-4 0  9999,2 53394  53.2157 181.8733 0001071  82.3260 277.7854 15.08832357 50603,6917.904,95.438,540.51,539.028,0.0
53394.0,STARLINK-4544,PAYLOAD,2023-07-07 08:35:01,15.08841675,0.0001128,53.2159,176.8182,80.6968,279.4152,7.7806e-05,9.51e-06,0.0,0 STARLINK-4544,1 53394U 22097G   23188.35765834  .00000951  00000-0  77806-4 0  9994,2 53394  53.2159 176.8182 0001128  80.6968 279.4152 15.08841675 50777,6917.875,95.437,540.521,538.96,0.0
53394.0,STARLINK-4544,PAYLOAD,2023-07-08 16:22:44,15.08841164,0.0001123,53.2152,170.8708,83.2149,276.8971,6.2204e-05,7.02e-06,0.0,0 STARLINK-4544,1 53394U 22097G   23189.68245851  .00000702  00000-0  62204-4 0  9993,2 53394  53.2152 170.8708 0001123  83.2149 276.8971 15.08841164 50978,6917.877,95.437,540.519,538.965,0.0
53394.0,STARLINK-4544,PAYLOAD,2023-07-09 05:05:49,15.08838067,0.0001189,53.2159,168.4905,92.406,267.7068,-8.7786e-06,-4.28e-06,0.0,0 STARLINK-4544,1 53394U 22097G   23190.21238298 -.00000428  00000-0 -87786-5 0  9991,2 53394  53.2159 168.4905 0001189  92.4060 267.7068 15.08838067 51057,6917.886,95.438,540.574,538.929,0.0
53394.0,STARLINK-4544,PAYLOAD,2023-07-10 04:56:36,15.08844027,0.0001245,53.2163,164.0314,93.0214,267.0921,2.4986e-05,1.1e-06,0.0,0 STARLINK-4544,1 53394U 22097G   23191.20597778  .00000110  00000-0  24986-4 0  9990,2 53394  53.2163 164.0314 0001245  93.0214 267.0921 15.08844027 51200,6917.868,95.437,540.594,538.872,0.0
53394.0,STARLINK-4544,PAYLOAD,2023-07-10 22:25:51,15.08832464,0.0001222,53.2162,160.7604,92.4823,267.6309,3.0448e-05,1.97e-06,0.0,0 STARLINK-4544,1 53394U 22097G   23191.93462555  .00000197  00000-0  30448-4 0  9999,2 53394  53.2162 160.7604 0001222  92.4823 267.6309 15.08832464 51318,6917.903,95.438,540.614,538.923,0.0
53394.0,STARLINK-4544,PAYLOAD,2023-07-12 04:38:10,15.08842112,0.0001231,53.2165,155.1118,90.2657,269.8476,4.094e-05,3.64e-06,0.0,0 STARLINK-4544,1 53394U 22097G   23193.19318223  .00000364  00000-0  40940-4 0  9995,2 53394  53.2165 155.1118 0001231  90.2657 269.8476 15.08842112 51501,6917.874,95.437,540.591,538.887,0.0
53394.0,STARLINK-4544,PAYLOAD,2023-07-12 14:10:30,15.08832338,0.0001215,53.2162,153.3273,89.3653,270.7478,0.0001154,1.549e-05,0.0,0 STARLINK-4544,1 53394U 22097G   23193.59062721  .00001549  00000-0  11540-3 0  9997,2 53394  53.2162 153.3273 0001215  89.3653 270.7478 15.08832338 51565,6917.904,95.438,540.609,538.928,0.0
53394.0,STARLINK-4544,PAYLOAD,2023-07-13 07:39:44,15.08841205,0.0001441,53.2166,150.0569,98.4921,261.6234,8.8038e-05,1.113e-05,0.0,0 STARLINK-4544,1 53394U 22097G   23194.31926351  .00001113  00000-0  88038-4 0  9990,2 53394  53.2166 150.0569 0001441  98.4921 261.6234 15.08841205 51675,6917.877,95.437,540.739,538.745,0.0
53394.0,STARLINK-4544,PAYLOAD,2023-07-14 02:44:22,15.08836602,0.0001241,53.2161,146.4879,90.3722,269.7412,-2.7529e-05,-7.26e-06,0.0,0 STARLINK-4544,1 53394U 22097G   23195.11415196 -.00000726  00000-0 -27529-4 0  9998,2 53394  53.2161 146.4879 0001241  90.3722 269.7412 15.08836602 51796,6917.891,95.438,540.614,538.897,0.0
53394.0,STARLINK-4544,PAYLOAD,2023-07-15 05:45:54,15.08851844,0.000126,53.2159,141.4318,89.2858,270.8278,0.00011087,1.478e-05,0.0,0 STARLINK-4544,1 53394U 22097G   23196.24021782  .00001478  00000-0  11087-3 0  9991,2 53394  53.2159 141.4318 0001260  89.2858 270.8278 15.08851844 51961,6917.844,95.437,540.581,538.838,0.0
53394.0,STARLINK-4544,PAYLOAD,2023-07-16 02:25:56,15.08834722,0.0001321,53.2165,137.5659,88.6739,271.4405,2.0207e-05,3.4e-07,0.0,0 STARLINK-4544,1 53394U 22097G   23197.10135402  .00000034  00000-0  20207-4 0  9994,2 53394  53.2165 137.5659 0001321  88.6739 271.4405 15.08834722 52091,6917.897,95.438,540.675,538.848,0.0
53394.0,STARLINK-4544,PAYLOAD,2023-07-17 02:16:43,15.08848849,0.0001295,53.2165,133.1054,88.0432,272.0708,0.000111,1.48e-05,0.0,0 STARLINK-4544,1 53394U 22097G   23198.09494430  .00001480  00000-0  11100-3 0  9999,2 53394  53.2165 133.1054 0001295  88.0432 272.0708 15.08848849 52241,6917.853,95.437,540.614,538.822,0.0
53394.0,STARLINK-4544,PAYLOAD,2023-07-18 02:07:30,15.08847593,0.0001286,53.2168,128.6453,86.6662,273.4477,0.00017329,2.472e-05,0.0,0 STARLINK-4544,1 53394U 22097G   23199.08854386  .00002472  00000-0  17329-3 0  9990,2 53394  53.2168 128.6453 0001286  86.6662 273.4477 15.08847593 52394,6917.857,95.437,540.612,538.833,0.0
53394.0,STARLINK-4544,PAYLOAD,2023-07-18 05:18:16,15.08856975,0.0001274,53.2163,128.0505,88.5008,271.613,0.00032778,4.935e-05,0.0,0 STARLINK-4544,1 53394U 22097G   23199.22102159  .00004935  00000-0  32778-3 0  9991,2 53394  53.2163 128.0505 0001274  88.5008 271.6130 15.08856975 52416,6917.829,95.436,540.575,538.812,0.0
53394.0,STARLINK-4544,PAYLOAD,2023-07-19 01:58:17,15.08841576,0.0001267,53.2157,124.1846,101.8633,258.2501,-1.9401e-05,-5.97e-06,0.0,0 STARLINK-4544,1 53394U 22097G   23200.08214768 -.00000597  00000-0 -19401-4 0  9999,2 53394  53.2157 124.1846 0001267 101.8633 258.2501 15.08841576 52547,6917.876,95.437,540.617,538.864,0.0
53394.0,STARLINK-4544,PAYLOAD,2023-07-19 19:27:32,15.08834704,0.0001316,53.2163,120.9152,98.8848,261.2293,-0.00013532,-2.441e-05,0.0,0 STARLINK-4544,1 53394U 22097G   23200.81079371 -.00002441  00000-0 -13532-3 0  9997,2 53394  53.2163 120.9152 0001316  98.8848 261.2293 15.08834704 52655,6917.897,95.438,540.672,538.851,0.0
53394.0,STARLINK-4544,PAYLOAD,2023-07-21 01:39:52,15.08842834,0.0001233,53.2162,115.2661,116.569,243.5429,0.00027049,4.02e-05,0.0,0 STARLINK-4544,1 53394U 22097G   23202.06935690  .00004020  00000-0  27049-3 0  9992,2 53394  53.2162 115.2661 0001233 116.5690 243.5429 15.08842834 52845,6917.872,95.437,540.59,538.884,0.0
53394.0,STARLINK-4544,PAYLOAD,2023-07-24 02:47:37,15.08839693,0.0001394,53.2163,101.5858,86.6415,273.4736,0.0001248,1.699e-05,0.0,0 STARLINK-4544,1 53394U 22097G   23205.11640203  .00001699  00000-0  12480-3 0  9996,2 53394  53.2163 101.5858 0001394  86.6415 273.4736 15.08839693 53957,6917.881,95.438,540.711,538.782,0.0
